<?xml version="1.0" encoding="UTF-8"?>
<ndm xmlns:xsi="http://www.w3.org/2001/XMLSchema-instance" xsi:noNamespaceSchemaLocation="https://sanaregistry.org/r/ndmxml_unqualified/ndmxml-2.0.0-master-2.0.xsd">
<omm id="CCSDS_OMM_VERS" version="2.0">
<header><CREATION_DATE/><ORIGINATOR/></header><body><segment><metadata><OBJECT_NAME>KUIPER-00071</OBJECT_NAME><OBJECT_ID>2025-151C</OBJECT_ID><CENTER_NAME>EARTH</CENTER_NAME><REF_FRAME>TEME</REF_FRAME><TIME_SYSTEM>UTC</TIME_SYSTEM><MEAN_ELEMENT_THEORY>SGP4</MEAN_ELEMENT_THEORY></metadata><data><meanElements><EPOCH>2025-08-11T04:00:01.999584</EPOCH><MEAN_MOTION>15.27926886</MEAN_MOTION><ECCENTRICITY>.0003319</ECCENTRICITY><INCLINATION>51.8808</INCLINATION><RA_OF_ASC_NODE>162.9438</RA_OF_ASC_NODE><ARG_OF_PERICENTER>222.2800</ARG_OF_PERICENTER><MEAN_ANOMALY>9.8494</MEAN_ANOMALY></meanElements><tleParameters><EPHEMERIS_TYPE>0</EPHEMERIS_TYPE><CLASSIFICATION_TYPE>U</CLASSIFICATION_TYPE><NORAD_CAT_ID>64818</NORAD_CAT_ID><ELEMENT_SET_NO>999</ELEMENT_SET_NO><REV_AT_EPOCH>396</REV_AT_EPOCH><BSTAR>-.22905E-1</BSTAR><MEAN_MOTION_DOT>-.592611E-2</MEAN_MOTION_DOT><MEAN_MOTION_DDOT>0</MEAN_MOTION_DDOT></tleParameters></data></segment></body></omm>
<omm id="CCSDS_OMM_VERS" version="2.0">
<header><CREATION_DATE/><ORIGINATOR/></header><body><segment><metadata><OBJECT_NAME>KUIPER-00072</OBJECT_NAME><OBJECT_ID>2025-151D</OBJECT_ID><CENTER_NAME>EARTH</CENTER_NAME><REF_FRAME>TEME</REF_FRAME><TIME_SYSTEM>UTC</TIME_SYSTEM><MEAN_ELEMENT_THEORY>SGP4</MEAN_ELEMENT_THEORY></metadata><data><meanElements><EPOCH>2025-08-09T05:18:13.093632</EPOCH><MEAN_MOTION>15.35383942</MEAN_MOTION><ECCENTRICITY>.0004413</ECCENTRICITY><INCLINATION>51.8768</INCLINATION><RA_OF_ASC_NODE>172.1556</RA_OF_ASC_NODE><ARG_OF_PERICENTER>286.2852</ARG_OF_PERICENTER><MEAN_ANOMALY>73.7649</MEAN_ANOMALY></meanElements><tleParameters><EPHEMERIS_TYPE>0</EPHEMERIS_TYPE><CLASSIFICATION_TYPE>U</CLASSIFICATION_TYPE><NORAD_CAT_ID>64819</NORAD_CAT_ID><ELEMENT_SET_NO>999</ELEMENT_SET_NO><REV_AT_EPOCH>367</REV_AT_EPOCH><BSTAR>-.15276E-2</BSTAR><MEAN_MOTION_DOT>-.53336E-3</MEAN_MOTION_DOT><MEAN_MOTION_DDOT>0</MEAN_MOTION_DDOT></tleParameters></data></segment></body></omm>
<omm id="CCSDS_OMM_VERS" version="2.0">
<header><CREATION_DATE/><ORIGINATOR/></header><body><segment><metadata><OBJECT_NAME>KUIPER-00073</OBJECT_NAME><OBJECT_ID>2025-151E</OBJECT_ID><CENTER_NAME>EARTH</CENTER_NAME><REF_FRAME>TEME</REF_FRAME><TIME_SYSTEM>UTC</TIME_SYSTEM><MEAN_ELEMENT_THEORY>SGP4</MEAN_ELEMENT_THEORY></metadata><data><meanElements><EPOCH>2025-08-11T04:00:01.999584</EPOCH><MEAN_MOTION>15.30056370</MEAN_MOTION><ECCENTRICITY>.000535</ECCENTRICITY><INCLINATION>51.8807</INCLINATION><RA_OF_ASC_NODE>162.9779</RA_OF_ASC_NODE><ARG_OF_PERICENTER>242.1307</ARG_OF_PERICENTER><MEAN_ANOMALY>356.3026</MEAN_ANOMALY></meanElements><tleParameters><EPHEMERIS_TYPE>0</EPHEMERIS_TYPE><CLASSIFICATION_TYPE>U</CLASSIFICATION_TYPE><NORAD_CAT_ID>64820</NORAD_CAT_ID><ELEMENT_SET_NO>999</ELEMENT_SET_NO><REV_AT_EPOCH>514</REV_AT_EPOCH><BSTAR>-.54514E-1</BSTAR><MEAN_MOTION_DOT>-.1456073E-1</MEAN_MOTION_DOT><MEAN_MOTION_DDOT>0</MEAN_MOTION_DDOT></tleParameters></data></segment></body></omm>
<omm id="CCSDS_OMM_VERS" version="2.0">
<header><CREATION_DATE/><ORIGINATOR/></header><body><segment><metadata><OBJECT_NAME>KUIPER-00074</OBJECT_NAME><OBJECT_ID>2025-151F</OBJECT_ID><CENTER_NAME>EARTH</CENTER_NAME><REF_FRAME>TEME</REF_FRAME><TIME_SYSTEM>UTC</TIME_SYSTEM><MEAN_ELEMENT_THEORY>SGP4</MEAN_ELEMENT_THEORY></metadata><data><meanElements><EPOCH>2025-08-10T07:47:29.505984</EPOCH><MEAN_MOTION>15.35676671</MEAN_MOTION><ECCENTRICITY>.000461</ECCENTRICITY><INCLINATION>51.8781</INCLINATION><RA_OF_ASC_NODE>166.8036</RA_OF_ASC_NODE><ARG_OF_PERICENTER>233.3547</ARG_OF_PERICENTER><MEAN_ANOMALY>126.7016</MEAN_ANOMALY></meanElements><tleParameters><EPHEMERIS_TYPE>0</EPHEMERIS_TYPE><CLASSIFICATION_TYPE>U</CLASSIFICATION_TYPE><NORAD_CAT_ID>64821</NORAD_CAT_ID><ELEMENT_SET_NO>999</ELEMENT_SET_NO><REV_AT_EPOCH>384</REV_AT_EPOCH><BSTAR>.85446E-3</BSTAR><MEAN_MOTION_DOT>.29842E-3</MEAN_MOTION_DOT><MEAN_MOTION_DDOT>0</MEAN_MOTION_DDOT></tleParameters></data></segment></body></omm>
<omm id="CCSDS_OMM_VERS" version="2.0">
<header><CREATION_DATE/><ORIGINATOR/></header><body><segment><metadata><OBJECT_NAME>KUIPER-00075</OBJECT_NAME><OBJECT_ID>2025-151G</OBJECT_ID><CENTER_NAME>EARTH</CENTER_NAME><REF_FRAME>TEME</REF_FRAME><TIME_SYSTEM>UTC</TIME_SYSTEM><MEAN_ELEMENT_THEORY>SGP4</MEAN_ELEMENT_THEORY></metadata><data><meanElements><EPOCH>2025-08-10T10:52:58.510272</EPOCH><MEAN_MOTION>15.36243257</MEAN_MOTION><ECCENTRICITY>.0004048</ECCENTRICITY><INCLINATION>51.8791</INCLINATION><RA_OF_ASC_NODE>166.1754</RA_OF_ASC_NODE><ARG_OF_PERICENTER>231.0722</ARG_OF_PERICENTER><MEAN_ANOMALY>128.9903</MEAN_ANOMALY></meanElements><tleParameters><EPHEMERIS_TYPE>0</EPHEMERIS_TYPE><CLASSIFICATION_TYPE>U</CLASSIFICATION_TYPE><NORAD_CAT_ID>64822</NORAD_CAT_ID><ELEMENT_SET_NO>999</ELEMENT_SET_NO><REV_AT_EPOCH>386</REV_AT_EPOCH><BSTAR>.1115E-1</BSTAR><MEAN_MOTION_DOT>.422782E-2</MEAN_MOTION_DOT><MEAN_MOTION_DDOT>0</MEAN_MOTION_DDOT></tleParameters></data></segment></body></omm>
<omm id="CCSDS_OMM_VERS" version="2.0">
<header><CREATION_DATE/><ORIGINATOR/></header><body><segment><metadata><OBJECT_NAME>KUIPER-00076</OBJECT_NAME><OBJECT_ID>2025-151H</OBJECT_ID><CENTER_NAME>EARTH</CENTER_NAME><REF_FRAME>TEME</REF_FRAME><TIME_SYSTEM>UTC</TIME_SYSTEM><MEAN_ELEMENT_THEORY>SGP4</MEAN_ELEMENT_THEORY></metadata><data><meanElements><EPOCH>2025-08-11T02:34:49.718496</EPOCH><MEAN_MOTION>15.35564624</MEAN_MOTION><ECCENTRICITY>.0004616</ECCENTRICITY><INCLINATION>51.8778</INCLINATION><RA_OF_ASC_NODE>163.0504</RA_OF_ASC_NODE><ARG_OF_PERICENTER>230.0574</ARG_OF_PERICENTER><MEAN_ANOMALY>130.0007</MEAN_ANOMALY></meanElements><tleParameters><EPHEMERIS_TYPE>0</EPHEMERIS_TYPE><CLASSIFICATION_TYPE>U</CLASSIFICATION_TYPE><NORAD_CAT_ID>64823</NORAD_CAT_ID><ELEMENT_SET_NO>999</ELEMENT_SET_NO><REV_AT_EPOCH>396</REV_AT_EPOCH><BSTAR>.91357E-3</BSTAR><MEAN_MOTION_DOT>.31826E-3</MEAN_MOTION_DOT><MEAN_MOTION_DDOT>0</MEAN_MOTION_DDOT></tleParameters></data></segment></body></omm>
<omm id="CCSDS_OMM_VERS" version="2.0">
<header><CREATION_DATE/><ORIGINATOR/></header><body><segment><metadata><OBJECT_NAME>KUIPER-00077</OBJECT_NAME><OBJECT_ID>2025-151J</OBJECT_ID><CENTER_NAME>EARTH</CENTER_NAME><REF_FRAME>TEME</REF_FRAME><TIME_SYSTEM>UTC</TIME_SYSTEM><MEAN_ELEMENT_THEORY>SGP4</MEAN_ELEMENT_THEORY></metadata><data><meanElements><EPOCH>2025-08-11T02:38:17.994336</EPOCH><MEAN_MOTION>15.35550652</MEAN_MOTION><ECCENTRICITY>.0004795</ECCENTRICITY><INCLINATION>51.8794</INCLINATION><RA_OF_ASC_NODE>163.0752</RA_OF_ASC_NODE><ARG_OF_PERICENTER>239.5061</ARG_OF_PERICENTER><MEAN_ANOMALY>120.5452</MEAN_ANOMALY></meanElements><tleParameters><EPHEMERIS_TYPE>0</EPHEMERIS_TYPE><CLASSIFICATION_TYPE>U</CLASSIFICATION_TYPE><NORAD_CAT_ID>64824</NORAD_CAT_ID><ELEMENT_SET_NO>999</ELEMENT_SET_NO><REV_AT_EPOCH>395</REV_AT_EPOCH><BSTAR>.13813E-2</BSTAR><MEAN_MOTION_DOT>.48403E-3</MEAN_MOTION_DOT><MEAN_MOTION_DDOT>0</MEAN_MOTION_DDOT></tleParameters></data></segment></body></omm>
<omm id="CCSDS_OMM_VERS" version="2.0">
<header><CREATION_DATE/><ORIGINATOR/></header><body><segment><metadata><OBJECT_NAME>KUIPER-00078</OBJECT_NAME><OBJECT_ID>2025-151K</OBJECT_ID><CENTER_NAME>EARTH</CENTER_NAME><REF_FRAME>TEME</REF_FRAME><TIME_SYSTEM>UTC</TIME_SYSTEM><MEAN_ELEMENT_THEORY>SGP4</MEAN_ELEMENT_THEORY></metadata><data><meanElements><EPOCH>2025-08-10T09:26:36.783456</EPOCH><MEAN_MOTION>15.35528649</MEAN_MOTION><ECCENTRICITY>.0005419</ECCENTRICITY><INCLINATION>51.8784</INCLINATION><RA_OF_ASC_NODE>166.5181</RA_OF_ASC_NODE><ARG_OF_PERICENTER>244.9815</ARG_OF_PERICENTER><MEAN_ANOMALY>115.0609</MEAN_ANOMALY></meanElements><tleParameters><EPHEMERIS_TYPE>0</EPHEMERIS_TYPE><CLASSIFICATION_TYPE>U</CLASSIFICATION_TYPE><NORAD_CAT_ID>64825</NORAD_CAT_ID><ELEMENT_SET_NO>999</ELEMENT_SET_NO><REV_AT_EPOCH>385</REV_AT_EPOCH><BSTAR>.66469E-3</BSTAR><MEAN_MOTION_DOT>.22999E-3</MEAN_MOTION_DOT><MEAN_MOTION_DDOT>0</MEAN_MOTION_DDOT></tleParameters></data></segment></body></omm>

</ndm>
