KUIPER-00071            
1 64818U 25151C   25223.16668981 -.00592611  00000+0 -22905-1 0  9994
2 64818  51.8808 162.9438 0003319 222.2800   9.8494 15.27926886  3960
KUIPER-00072            
1 64819U 25151D   25221.22098488 -.00053336  00000+0 -15276-2 0  9999
2 64819  51.8768 172.1556 0004413 286.2852  73.7649 15.35383942  3672
KUIPER-00073            
1 64820U 25151E   25223.16668981 -.01456073  00000+0 -54514-1 0  9990
2 64820  51.8807 162.9779 0005350 242.1307 356.3026 15.30056370  5149
KUIPER-00074            
1 64821U 25151F   25222.32464706  .00029842  00000+0  85446-3 0  9994
2 64821  51.8781 166.8036 0004610 233.3547 126.7016 15.35676671  3846
KUIPER-00075            
1 64822U 25151G   25222.45345498  .00422782  00000+0  11150-1 0  9994
2 64822  51.8791 166.1754 0004048 231.0722 128.9903 15.36243257  3865
KUIPER-00076            
1 64823U 25151H   25223.10751989  .00031826  00000+0  91357-3 0  9998
2 64823  51.8778 163.0504 0004616 230.0574 130.0007 15.35564624  3968
KUIPER-00077            
1 64824U 25151J   25223.10993049  .00048403  00000+0  13813-2 0  9993
2 64824  51.8794 163.0752 0004795 239.5061 120.5452 15.35550652  3958
KUIPER-00078            
1 64825U 25151K   25222.39348129  .00022999  00000+0  66469-3 0  9995
2 64825  51.8784 166.5181 0005419 244.9815 115.0609 15.35528649  3856
